ONEWEB-0674             
1 55833U 23029AP  25033.46732451 -.00000174  00000+0 -50384-3 0  9991
2 55833  87.9012  29.0881 0001334  98.2450 261.8831 13.14503566 93768
ONEWEB-0675             
1 55834U 23029AQ  25033.49875810  .00000047  00000+0  84955-4 0  9991
2 55834  87.9155  44.3199 0002192  86.3798 273.7585 13.19725072 93014
ONEWEB-0720             
1 55835U 23029AR  25033.49085867  .00000087  00000+0  18424-3 0  9998
2 55835  87.9146  44.3198 0001981 103.8818 256.2535 13.19724596 92938
ONEWEB-0537             
1 56046U 23043A   25033.36259750  .00000034  00000+0  55240-4 0  9999
2 56046  87.9128 328.3616 0002037  72.5376 287.5978 13.16595435 93199
ONEWEB-0538             
1 56047U 23043B   25033.35625648  .00000106  00000+0  24353-3 0  9992
2 56047  87.9131 328.3838 0002274  78.3626 281.7760 13.16595836 93207
ONEWEB-0546             
1 56048U 23043C   25033.34359607  .00000103  00000+0  23555-3 0  9991
2 56048  87.9126 328.3553 0002150  59.5484 300.5859 13.16595446 93196
ONEWEB-0547             
1 56049U 23043D   25033.35037713  .00000122  00000+0  26513-3 0  9992
2 56049  87.9339 343.5887 0002125  82.1580 277.9795 13.21823355 92197
ONEWEB-0548             
1 56050U 23043E   25033.29291738  .00000036  00000+0  61841-4 0  9994
2 56050  87.9132 328.4055 0001245  78.0504 282.0766 13.16596423 93183
